{"type":"FeatureCollection","features":[{"type":"Feature","properties":{"name":"20296_DP4_Dal_UTM33_3DMesh","owner":"KimKooy","modified":"2025-06-27","url":"https://www.arcgis.com/home/item.html?id=f286362602334b13b1ff956d0f29d076","service":"https://tiles-eu1.arcgis.com/loNHWbbUDaxqMQ4L/arcgis/rest/services/20296_DP4_Dal_UTM33_3DMesh/SceneServer"},"geometry":{"type":"Polygon","coordinates":[[[11.1888,60.2389],[11.2163,60.2389],[11.2163,60.2621],[11.1888,60.2621],[11.1888,60.2389]]]}},{"type":"Feature","properties":{"name":"3D Regional Model Block A","owner":"Sunshine.Coast","modified":"2022-07-18","url":"https://www.arcgis.com/home/item.html?id=7d209ff68a88422b90247cade0f68d5a","service":"https://tiles-ap1.arcgis.com/YQyt7djuXN7rQyg4/arcgis/rest/services/3D_Regional_Model_Block_A/SceneServer"},"geometry":{"type":"Polygon","coordinates":[[[152.999,-26.5722],[153.1024,-26.5722],[153.1024,-26.4684],[152.999,-26.4684],[152.999,-26.5722]]]}},{"type":"Feature","properties":{"name":"3D Regional Model Block B","owner":"Sunshine.Coast","modified":"2022-07-18","url":"https://www.arcgis.com/home/item.html?id=145c6a99dc6b4c01994f174ef381664a","service":"https://tiles-ap1.arcgis.com/YQyt7djuXN7rQyg4/arcgis/rest/services/3D_Regional_Model_Block_B/SceneServer"},"geometry":{"type":"Polygon","coordinates":[[[152.9171,-26.6711],[153.0151,-26.6711],[153.0151,-26.5721],[152.9171,-26.5721],[152.9171,-26.6711]]]}},{"type":"Feature","properties":{"name":"3D Regional Model Block C","owner":"Sunshine.Coast","modified":"2022-07-18","url":"https://www.arcgis.com/home/item.html?id=e7d48d5e5491450ea29493d087c050b7","service":"https://tiles-ap1.arcgis.com/YQyt7djuXN7rQyg4/arcgis/rest/services/3D_Regional_Model_Block_C/SceneServer"},"geometry":{"type":"Polygon","coordinates":[[[153.0151,-26.671],[153.1059,-26.671],[153.1059,-26.5717],[153.0151,-26.5717],[153.0151,-26.671]]]}},{"type":"Feature","properties":{"name":"3D Regional Model Block D","owner":"Sunshine.Coast","modified":"2022-07-18","url":"https://www.arcgis.com/home/item.html?id=a2a697d33f164a8f878a60753bf24160","service":"https://tiles-ap1.arcgis.com/YQyt7djuXN7rQyg4/arcgis/rest/services/3D_Regional_Model_Block_D/SceneServer"},"geometry":{"type":"Polygon","coordinates":[[[152.9173,-26.7568],[153.0302,-26.7568],[153.0302,-26.6713],[152.9173,-26.6713],[152.9173,-26.7568]]]}},{"type":"Feature","properties":{"name":"3D Regional Model Block E","owner":"Sunshine.Coast","modified":"2022-07-18","url":"https://www.arcgis.com/home/item.html?id=1767f00c6d324be5b920e14d523c537e","service":"https://tiles-ap1.arcgis.com/YQyt7djuXN7rQyg4/arcgis/rest/services/3D_Regional_Model_Block_E/SceneServer"},"geometry":{"type":"Polygon","coordinates":[[[153.0302,-26.7568],[153.1399,-26.7568],[153.1399,-26.671],[153.0302,-26.671],[153.0302,-26.7568]]]}},{"type":"Feature","properties":{"name":"3D Regional Model Block F","owner":"Sunshine.Coast","modified":"2022-07-18","url":"https://www.arcgis.com/home/item.html?id=bacf34d3776b4d29972fa0bf933c95fa","service":"https://tiles-ap1.arcgis.com/YQyt7djuXN7rQyg4/arcgis/rest/services/3D_Regional_Model_Block_F/SceneServer"},"geometry":{"type":"Polygon","coordinates":[[[152.9168,-26.8431],[153.0307,-26.8431],[153.0307,-26.7569],[152.9168,-26.7569],[152.9168,-26.8431]]]}},{"type":"Feature","properties":{"name":"3D Regional Model Block G","owner":"Sunshine.Coast","modified":"2022-07-18","url":"https://www.arcgis.com/home/item.html?id=5ced531a2c184594943d82916c89fed6","service":"https://tiles-ap1.arcgis.com/YQyt7djuXN7rQyg4/arcgis/rest/services/3D_Regional_Model_Block_G/SceneServer"},"geometry":{"type":"Polygon","coordinates":[[[153.0293,-26.8436],[153.1483,-26.8436],[153.1483,-26.7565],[153.0293,-26.7565],[153.0293,-26.8436]]]}},{"type":"Feature","properties":{"name":"3D Regional Model Block H","owner":"Sunshine.Coast","modified":"2022-07-18","url":"https://www.arcgis.com/home/item.html?id=35f456805adb407d98c2994016b1ed84","service":"https://tiles-ap1.arcgis.com/YQyt7djuXN7rQyg4/arcgis/rest/services/3D_Regional_Model_Block_H/SceneServer"},"geometry":{"type":"Polygon","coordinates":[[[152.9121,-26.8894],[153.1118,-26.8894],[153.1118,-26.8427],[152.9121,-26.8427],[152.9121,-26.8894]]]}},{"type":"Feature","properties":{"name":"3D Regional Model Bokarina","owner":"Sunshine.Coast","modified":"2022-07-18","url":"https://www.arcgis.com/home/item.html?id=37cdd662cd5f441fb07e6f62bf3f4b61","service":"https://tiles-ap1.arcgis.com/YQyt7djuXN7rQyg4/arcgis/rest/services/3D_Regional_Model_Bokarina/SceneServer"},"geometry":{"type":"Polygon","coordinates":[[[153.1049,-26.7632],[153.1416,-26.7632],[153.1416,-26.6854],[153.1049,-26.6854],[153.1049,-26.7632]]]}},{"type":"Feature","properties":{"name":"3D Regional Model Caloundra","owner":"Sunshine.Coast","modified":"2022-07-18","url":"https://www.arcgis.com/home/item.html?id=322795871f744781ac4aa0c629c5674b","service":"https://tiles-ap1.arcgis.com/YQyt7djuXN7rQyg4/arcgis/rest/services/3D_Regional_Model_Caloundra/SceneServer"},"geometry":{"type":"Polygon","coordinates":[[[153.1143,-26.8106],[153.1528,-26.8106],[153.1528,-26.7657],[153.1143,-26.7657],[153.1143,-26.8106]]]}},{"type":"Feature","properties":{"name":"3D Regional Model Caloundra Street Level","owner":"Sunshine.Coast","modified":"2022-07-18","url":"https://www.arcgis.com/home/item.html?id=c39d71c0cdd341c5a22fb8e9c1a0fedf","service":"https://tiles-ap1.arcgis.com/YQyt7djuXN7rQyg4/arcgis/rest/services/3D_Regional_Model_Caloundra_Street_Level/SceneServer"},"geometry":{"type":"Polygon","coordinates":[[[153.1268,-26.8055],[153.1348,-26.8055],[153.1348,-26.8036],[153.1268,-26.8036],[153.1268,-26.8055]]]}},{"type":"Feature","properties":{"name":"3D Regional Model Coolum Beach","owner":"Sunshine.Coast","modified":"2022-07-18","url":"https://www.arcgis.com/home/item.html?id=0fd7e0aef70c4e8585a851b4d73cac2d","service":"https://tiles-ap1.arcgis.com/YQyt7djuXN7rQyg4/arcgis/rest/services/3D_Regional_Model_Coolum_Beach/SceneServer"},"geometry":{"type":"Polygon","coordinates":[[[153.0828,-26.541],[153.0978,-26.541],[153.0978,-26.5179],[153.0828,-26.5179],[153.0828,-26.541]]]}},{"type":"Feature","properties":{"name":"3D Regional Model Maroochydore","owner":"Sunshine.Coast","modified":"2022-07-18","url":"https://www.arcgis.com/home/item.html?id=0886702cfeb74b239a5d5523f2ccbb2e","service":"https://tiles-ap1.arcgis.com/YQyt7djuXN7rQyg4/arcgis/rest/services/3D_Regional_Model_Maroochydore/SceneServer"},"geometry":{"type":"Polygon","coordinates":[[[153.0603,-26.7021],[153.1374,-26.7021],[153.1374,-26.6351],[153.0603,-26.6351],[153.0603,-26.7021]]]}},{"type":"Feature","properties":{"name":"3D Regional Model Maroochydore Street Level","owner":"Sunshine.Coast","modified":"2022-07-18","url":"https://www.arcgis.com/home/item.html?id=74d1ebd8944b456286274d4dbfa7f4fb","service":"https://tiles-ap1.arcgis.com/YQyt7djuXN7rQyg4/arcgis/rest/services/3D_Regional_Model_Maroochydore_Street_Level/SceneServer"},"geometry":{"type":"Polygon","coordinates":[[[153.0889,-26.6535],[153.0929,-26.6535],[153.0929,-26.6506],[153.0889,-26.6506],[153.0889,-26.6535]]]}},{"type":"Feature","properties":{"name":"3D Regional Model Mooloolaba Street Level","owner":"Sunshine.Coast","modified":"2022-07-18","url":"https://www.arcgis.com/home/item.html?id=401cc0889b464d4bbf99c79a21819c24","service":"https://tiles-ap1.arcgis.com/YQyt7djuXN7rQyg4/arcgis/rest/services/3D_Regional_Model_Mooloolaba_Street_Level/SceneServer"},"geometry":{"type":"Polygon","coordinates":[[[153.1166,-26.6826],[153.1226,-26.6826],[153.1226,-26.6766],[153.1166,-26.6766],[153.1166,-26.6826]]]}},{"type":"Feature","properties":{"name":"AMASYA_MESH","owner":"mavci_graphicsteam","modified":"2021-05-02","url":"https://www.arcgis.com/home/item.html?id=9a19316fc31d4fe4ab39e0a820a8687d","service":"https://tiles.arcgis.com/tiles/LowZSwtU68ytYOQM/arcgis/rest/services/AMASYA_MESH/SceneServer"},"geometry":{"type":"Polygon","coordinates":[[[35.7994,40.6335],[35.8347,40.6335],[35.8347,40.6568],[35.7994,40.6568],[35.7994,40.6335]]]}},{"type":"Feature","properties":{"name":"Boston - Integrated Mesh I3S","owner":"Scene_Layers","modified":"2024-05-27","url":"https://www.arcgis.com/home/item.html?id=ba73788a14f146ae8d40cbf8a6bc9270","service":"https://tiles.arcgis.com/tiles/z2tnIkrLQ2BRzr6P/arcgis/rest/services/Boston_MA_IM/SceneServer"},"geometry":{"type":"Polygon","coordinates":[[[-71.1163,42.3235],[-71.0306,42.3235],[-71.0306,42.3902],[-71.1163,42.3902],[-71.1163,42.3235]]]}},{"type":"Feature","properties":{"name":"Boston 2020 Integrated Mesh ","owner":"michael.okonski_Nearmap","modified":"2024-12-12","url":"https://www.arcgis.com/home/item.html?id=9d36c8c13572492e8ebafd3378120beb","service":"https://tiles.arcgis.com/tiles/PPOw4MFrWXxogKXh/arcgis/rest/services/Boston2020/SceneServer"},"geometry":{"type":"Polygon","coordinates":[[[-71.2545,42.161],[-71.1452,42.161],[-71.1452,42.22],[-71.2545,42.22],[-71.2545,42.161]]]}},{"type":"Feature","properties":{"name":"Cambridge, Massachusetts - Integrated Mesh I3S","owner":"Scene_Layers","modified":"2024-05-27","url":"https://www.arcgis.com/home/item.html?id=22ee642746454c6e909cc5ca8a806670","service":"https://tiles.arcgis.com/tiles/z2tnIkrLQ2BRzr6P/arcgis/rest/services/Cambridge_MA_Mesh/SceneServer"},"geometry":{"type":"Polygon","coordinates":[[[-71.1682,42.3333],[-71.055,42.3333],[-71.055,42.4215],[-71.1682,42.4215],[-71.1682,42.3333]]]}},{"type":"Feature","properties":{"name":"Frankfurt Integrated Mesh","owner":"Scene_Layers","modified":"2021-04-30","url":"https://www.arcgis.com/home/item.html?id=7448c63c07514ec5918314dab1ada387","service":"https://tiles.arcgis.com/tiles/z2tnIkrLQ2BRzr6P/arcgis/rest/services/2021_02_04_Frankfurt/SceneServer"},"geometry":{"type":"Polygon","coordinates":[[[8.6461,50.09],[8.7065,50.09],[8.7065,50.1275],[8.6461,50.1275],[8.6461,50.09]]]}},{"type":"Feature","properties":{"name":"Frankfurt_WSL1","owner":"mwoodlief_LandAdm","modified":"2023-05-22","url":"https://www.arcgis.com/home/item.html?id=e9772ba791f1464bb586386a2bca7b98","service":"https://tiles.arcgis.com/tiles/WzT7PEls7iSKXHyY/arcgis/rest/services/Frankfurt_WSL1/SceneServer"},"geometry":{"type":"Polygon","coordinates":[[[8.6536,50.1045],[8.6566,50.1045],[8.6566,50.1061],[8.6536,50.1061],[8.6536,50.1045]]]}},{"type":"Feature","properties":{"name":"Frankfurt2017_vi3s_18","owner":"Tam_3D","modified":"2023-03-10","url":"https://www.arcgis.com/home/item.html?id=cd6f66bff7cd4a71a2480d740818f7d6","service":"https://tiles.arcgis.com/tiles/z2tnIkrLQ2BRzr6P/arcgis/rest/services/Frankfurt2017_vi3s_18/SceneServer"},"geometry":{"type":"Polygon","coordinates":[[[8.6449,50.0924],[8.7082,50.0924],[8.7082,50.1265],[8.6449,50.1265],[8.6449,50.0924]]]}},{"type":"Feature","properties":{"name":"Integrated Mesh with mod_nodll_WSL1","owner":"jonahdinoco","modified":"2021-11-19","url":"https://www.arcgis.com/home/item.html?id=0d9c80adbdbe49e0a3cda46f5bff32f9","service":"https://tiles.arcgis.com/tiles/EguFTd9xPXEoDtC7/arcgis/rest/services/Integrated_Mesh_with_mod_nodll_WSL1/SceneServer"},"geometry":{"type":"Polygon","coordinates":[[[116.5358,39.6132],[116.5363,39.6132],[116.5363,39.6136],[116.5358,39.6136],[116.5358,39.6132]]]}},{"type":"Feature","properties":{"name":"Linz - Integrated Mesh I3S","owner":"Scene_Layers","modified":"2024-09-12","url":"https://www.arcgis.com/home/item.html?id=60c838befd054f4b87b6bfa1896d41f7","service":"https://tiles.arcgis.com/tiles/z2tnIkrLQ2BRzr6P/arcgis/rest/services/Linz_IM/SceneServer"},"geometry":{"type":"Polygon","coordinates":[[[14.2614,48.2609],[14.3511,48.2609],[14.3511,48.3343],[14.2614,48.3343],[14.2614,48.2609]]]}},{"type":"Feature","properties":{"name":"Munich - Integrated Mesh I3S","owner":"Scene_Layers","modified":"2024-09-12","url":"https://www.arcgis.com/home/item.html?id=1a863cfbfa5c4e0fae03ce428982e1b4","service":"https://tiles.arcgis.com/tiles/z2tnIkrLQ2BRzr6P/arcgis/rest/services/Munich_SURE_5_0_0_Mesh/SceneServer"},"geometry":{"type":"Polygon","coordinates":[[[11.5656,48.1163],[11.62,48.1163],[11.62,48.1503],[11.5656,48.1503],[11.5656,48.1163]]]}},{"type":"Feature","properties":{"name":"New York Mesh","owner":"Tam_3D","modified":"2020-04-10","url":"https://www.arcgis.com/home/item.html?id=c25ad987644e4048a015ea988e1d2418","service":"https://tiles.arcgis.com/tiles/z2tnIkrLQ2BRzr6P/arcgis/rest/services/New_York_Mesh/SceneServer"},"geometry":{"type":"Polygon","coordinates":[[[-74.0274,40.695],[-73.9282,40.695],[-73.9282,40.8103],[-74.0274,40.8103],[-74.0274,40.695]]]}},{"type":"Feature","properties":{"name":"Orlando Buildings SkylineSoft","owner":"3DCitiesSMorrish","modified":"2019-06-17","url":"https://www.arcgis.com/home/item.html?id=fa19410b47794190b9c8d7982601aee8","service":"https://tiles.arcgis.com/tiles/z2tnIkrLQ2BRzr6P/arcgis/rest/services/Orlando_Buildings_SkylineSoft/SceneServer"},"geometry":{"type":"Polygon","coordinates":[[[-81.3862,28.5348],[-81.3717,28.5348],[-81.3717,28.5494],[-81.3862,28.5494],[-81.3862,28.5348]]]}},{"type":"Feature","properties":{"name":"Prague Integrated Mesh","owner":"Urban_Brooks","modified":"2023-03-27","url":"https://www.arcgis.com/home/item.html?id=21aa68f5b21643fe9620cf7a31d8169b","service":"https://tiles.arcgis.com/tiles/cbDaIA5xFnHBUlC1/arcgis/rest/services/Prague_3D_Mesh_Example/SceneServer"},"geometry":{"type":"Polygon","coordinates":[[[14.3795,50.0504],[14.5268,50.0504],[14.5268,50.1301],[14.3795,50.1301],[14.3795,50.0504]]]}},{"type":"Feature","properties":{"name":"Rancho_JPEG_DXT_BASIS_v18","owner":"c_api_publisher","modified":"2021-11-16","url":"https://www.arcgis.com/home/item.html?id=d10712d9182446538953143076ebf266","service":"https://tiles.arcgis.com/tiles/N82JbI5EYtAkuUKU/arcgis/rest/services/Rancho_JPEG_DXT_BASIS_v18/SceneServer"},"geometry":{"type":"Polygon","coordinates":[[[-117.5383,34.1234],[-117.5369,34.1234],[-117.5369,34.125],[-117.5383,34.125],[-117.5383,34.1234]]]}},{"type":"Feature","properties":{"name":"Redlands_Redevelopment 3D Object Built Lots","owner":"ericwwittner","modified":"2019-12-09","url":"https://www.arcgis.com/home/item.html?id=1c62476bbea54e509c42f75cecef6e76","service":"https://tiles.arcgis.com/tiles/2ycVue24EK6qzjat/arcgis/rest/services/Redlands_Redevelopment_3D_Object_Built_Lots/SceneServer"},"geometry":{"type":"Polygon","coordinates":[[[-117.1857,34.0556],[-117.1827,34.0556],[-117.1827,34.0585],[-117.1857,34.0585],[-117.1857,34.0556]]]}},{"type":"Feature","properties":{"name":"Redlands_Redevelopment 3D Object Parks","owner":"ericwwittner","modified":"2019-12-09","url":"https://www.arcgis.com/home/item.html?id=e2cacb25b1ff482282f48964508e54f0","service":"https://tiles.arcgis.com/tiles/2ycVue24EK6qzjat/arcgis/rest/services/Redlands_Redevelopment_3D_Object_Parks/SceneServer"},"geometry":{"type":"Polygon","coordinates":[[[-117.1863,34.0559],[-117.1827,34.0559],[-117.1827,34.0596],[-117.1863,34.0596],[-117.1863,34.0559]]]}},{"type":"Feature","properties":{"name":"Redlands_Redevelopment 3D Object Streets","owner":"ericwwittner","modified":"2019-12-09","url":"https://www.arcgis.com/home/item.html?id=0313467b7014454f86350b1380296f33","service":"https://tiles.arcgis.com/tiles/2ycVue24EK6qzjat/arcgis/rest/services/Redlands_Redevelopment_3D_Object_Streets/SceneServer"},"geometry":{"type":"Polygon","coordinates":[[[-117.1869,34.0552],[-117.1815,34.0552],[-117.1815,34.0599],[-117.1869,34.0599],[-117.1869,34.0552]]]}},{"type":"Feature","properties":{"name":"Redlands_Redevelopment 3D Object Zoning","owner":"ericwwittner","modified":"2019-12-12","url":"https://www.arcgis.com/home/item.html?id=59446569528a42afae55ca01fce99e73","service":"https://tiles.arcgis.com/tiles/2ycVue24EK6qzjat/arcgis/rest/services/Redlands_Redevelopment_3D_Object_Zoning/SceneServer"},"geometry":{"type":"Polygon","coordinates":[[[-117.1857,34.0556],[-117.1827,34.0556],[-117.1827,34.0585],[-117.1857,34.0585],[-117.1857,34.0556]]]}},{"type":"Feature","properties":{"name":"Redlands_Redevelopment Mesh Built Lots","owner":"ericwwittner","modified":"2019-12-09","url":"https://www.arcgis.com/home/item.html?id=4caae32de65646c19b676bee7d52729f","service":"https://tiles.arcgis.com/tiles/2ycVue24EK6qzjat/arcgis/rest/services/Redlands_Redevelopment_Mesh_Built_Lots/SceneServer"},"geometry":{"type":"Polygon","coordinates":[[[-117.1857,34.0556],[-117.1827,34.0556],[-117.1827,34.0585],[-117.1857,34.0585],[-117.1857,34.0556]]]}},{"type":"Feature","properties":{"name":"Redlands_Redevelopment Mesh Parks","owner":"ericwwittner","modified":"2019-12-09","url":"https://www.arcgis.com/home/item.html?id=9d45af2d5b45424aaa52c8e46848aa90","service":"https://tiles.arcgis.com/tiles/2ycVue24EK6qzjat/arcgis/rest/services/Redlands_Redevelopment_Mesh_Parks/SceneServer"},"geometry":{"type":"Polygon","coordinates":[[[-117.1863,34.0559],[-117.1827,34.0559],[-117.1827,34.0596],[-117.1863,34.0596],[-117.1863,34.0559]]]}},{"type":"Feature","properties":{"name":"Redlands_Redevelopment Mesh Parks No Furn","owner":"ericwwittner","modified":"2019-12-12","url":"https://www.arcgis.com/home/item.html?id=7edcf6024fc9497e88b0f48c9a11e803","service":"https://tiles.arcgis.com/tiles/2ycVue24EK6qzjat/arcgis/rest/services/Redlands_Redevelopment_Mesh_Parks_No_Furn/SceneServer"},"geometry":{"type":"Polygon","coordinates":[[[-117.1863,34.0559],[-117.1827,34.0559],[-117.1827,34.0596],[-117.1863,34.0596],[-117.1863,34.0559]]]}},{"type":"Feature","properties":{"name":"Redlands_Redevelopment Mesh Streets","owner":"ericwwittner","modified":"2019-12-09","url":"https://www.arcgis.com/home/item.html?id=f2b1c788d200468281e68988ef2070b3","service":"https://tiles.arcgis.com/tiles/2ycVue24EK6qzjat/arcgis/rest/services/Redlands_Redevelopment_Mesh_Streets/SceneServer"},"geometry":{"type":"Polygon","coordinates":[[[-117.1869,34.0552],[-117.1815,34.0552],[-117.1815,34.0599],[-117.1869,34.0599],[-117.1869,34.0552]]]}},{"type":"Feature","properties":{"name":"Redlands_Redevelopment Mesh Streets No Furn","owner":"ericwwittner","modified":"2019-12-12","url":"https://www.arcgis.com/home/item.html?id=ce11ca2244fb4edca02b4dcc7bfb8dcd","service":"https://tiles.arcgis.com/tiles/2ycVue24EK6qzjat/arcgis/rest/services/Redlands_Redevelopment_Mesh_Streets_No_Furn/SceneServer"},"geometry":{"type":"Polygon","coordinates":[[[-117.1869,34.0552],[-117.1815,34.0552],[-117.1815,34.0599],[-117.1869,34.0599],[-117.1869,34.0552]]]}},{"type":"Feature","properties":{"name":"Stuttgart - Integrated Mesh I3S","owner":"Scene_Layers","modified":"2024-09-20","url":"https://www.arcgis.com/home/item.html?id=ff6527c967304b76b35a960123b79fca","service":"https://tiles.arcgis.com/tiles/z2tnIkrLQ2BRzr6P/arcgis/rest/services/Stuttgart_SURE_Mesh/SceneServer"},"geometry":{"type":"Polygon","coordinates":[[[9.1343,48.8229],[9.2593,48.8229],[9.2593,48.8976],[9.1343,48.8976],[9.1343,48.8229]]]}},{"type":"Feature","properties":{"name":"Tallinna kohtumaja 3D","owner":"AndresKasekampMA","modified":"2021-06-08","url":"https://www.arcgis.com/home/item.html?id=c211c2fb4bde48a8a33f20bf8b7ee862","service":"https://tiles.arcgis.com/tiles/ZYGCYltwz5ExeoGm/arcgis/rest/services/Kohtuhoone_SLPK_3301/SceneServer"},"geometry":{"type":"Polygon","coordinates":[[[24.7794,59.4276],[24.7812,59.4276],[24.7812,59.4285],[24.7794,59.4285],[24.7794,59.4276]]]}},{"type":"Feature","properties":{"name":"Utrecht - Integrated Mesh I3S","owner":"Scene_Layers","modified":"2024-05-23","url":"https://www.arcgis.com/home/item.html?id=e50391fcb952427f94e720ac8bfdeddf","service":"https://tiles.arcgis.com/tiles/z2tnIkrLQ2BRzr6P/arcgis/rest/services/Utrecht__Integrated_Mesh_I3S/SceneServer"},"geometry":{"type":"Polygon","coordinates":[[[5.1034,52.0806],[5.1319,52.0806],[5.1319,52.0982],[5.1034,52.0982],[5.1034,52.0806]]]}},{"type":"Feature","properties":{"name":"Utrecht Buildings 2021","owner":"scene_viewer","modified":"2022-04-06","url":"https://www.arcgis.com/home/item.html?id=bb9beeaec3fd4e7e93e17d67499bb4b0","service":"https://tiles.arcgis.com/tiles/cFEFS0EWrhfDeVw9/arcgis/rest/services/Utrecht_Buildings_2021/SceneServer"},"geometry":{"type":"Polygon","coordinates":[[[5.1034,52.0806],[5.1319,52.0806],[5.1319,52.0982],[5.1034,52.0982],[5.1034,52.0806]]]}},{"type":"Feature","properties":{"name":"vadstena_nob_2023_db52_12_2107_1357","owner":"content_gmdb","modified":"2023-12-20","url":"https://www.arcgis.com/home/item.html?id=b7b1193e24174adeabad2053ba6a88d6","service":"https://tiles-eu1.arcgis.com/fyncqJ7cWHF7TuW8/arcgis/rest/services/3DNL_2023_db52_12_2107_1357/SceneServer"},"geometry":{"type":"Polygon","coordinates":[[[5.2134,51.7269],[5.2736,51.7269],[5.2736,51.7486],[5.2134,51.7486],[5.2134,51.7269]]]}},{"type":"Feature","properties":{"name":"Vienna - Integrated Mesh I3S","owner":"Scene_Layers","modified":"2024-09-12","url":"https://www.arcgis.com/home/item.html?id=3ad040dd5001407e8edb03de44d6d73c","service":"https://tiles.arcgis.com/tiles/z2tnIkrLQ2BRzr6P/arcgis/rest/services/Vienna__Integrated_Mesh_I3S/SceneServer"},"geometry":{"type":"Polygon","coordinates":[[[16.175,48.0762],[16.6072,48.0762],[16.6072,48.3645],[16.175,48.3645],[16.175,48.0762]]]}},{"type":"Feature","properties":{"name":"yosemite vricon dxt IML for override","owner":"c_api_publisher","modified":"2018-11-09","url":"https://www.arcgis.com/home/item.html?id=39205f16d54043359170dbb1fa9e05cb","service":"https://tiles.arcgis.com/tiles/N82JbI5EYtAkuUKU/arcgis/rest/services/yosemite_vricon_dxt/SceneServer"},"geometry":{"type":"Polygon","coordinates":[[[-119.7761,37.628],[-119.4476,37.628],[-119.4476,37.8336],[-119.7761,37.8336],[-119.7761,37.628]]]}},{"type":"Feature","properties":{"name":"Zurich - Integrated Mesh","owner":"jintac_3dcities","modified":"2024-09-26","url":"https://www.arcgis.com/home/item.html?id=53810642654c42b8a45bf8a98b7290e3","service":"https://tiles.arcgis.com/tiles/z2tnIkrLQ2BRzr6P/arcgis/rest/services/Zurich_Integrated_Mesh/SceneServer"},"geometry":{"type":"Polygon","coordinates":[[[8.5174,47.3556],[8.5633,47.3556],[8.5633,47.3872],[8.5174,47.3872],[8.5174,47.3556]]]}}]}